[{"OBJECT_NAME":"STARLINK-4699","OBJECT_ID":"2022-107S","EPOCH":"2026-03-09T22:11:48.741216","MEAN_MOTION":15.08836772,"ECCENTRICITY":0.00013465,"INCLINATION":53.216,"RA_OF_ASC_NODE":252.7435,"ARG_OF_PERICENTER":91.4444,"MEAN_ANOMALY":268.6702,"EPHEMERIS_TYPE":0,"CLASSIFICATION_TYPE":"U","NORAD_CAT_ID":53716,"ELEMENT_SET_NO":999,"REV_AT_EPOCH":19444,"BSTAR":1.174359e-6,"MEAN_MOTION_DOT":-2.69e-6,"MEAN_MOTION_DDOT":0},{"OBJECT_NAME":"QPS-SAR-7 (TSUKUYOMI-II)","OBJECT_ID":"2024-066F","EPOCH":"2026-03-09T22:44:25.024704","MEAN_MOTION":15.07520552,"ECCENTRICITY":3.06e-5,"INCLINATION":45.6053,"RA_OF_ASC_NODE":45.6252,"ARG_OF_PERICENTER":310.671,"MEAN_ANOMALY":49.4148,"EPHEMERIS_TYPE":0,"CLASSIFICATION_TYPE":"U","NORAD_CAT_ID":59447,"ELEMENT_SET_NO":999,"REV_AT_EPOCH":10524,"BSTAR":0.00063712098,"MEAN_MOTION_DOT":9.59e-5,"MEAN_MOTION_DDOT":0}]
